<?xml version="1.0" encoding="UTF-8"?>
<kml xmlns="http://www.opengis.net/kml/2.2" xmlns:gx="http://www.google.com/kml/ext/2.2" xmlns:kml="http://www.opengis.net/kml/2.2" xmlns:atom="http://www.w3.org/2005/Atom">
<Document>
	<name>Climbersheaven</name>
	<gx:CascadingStyle kml:id="__managed_style_08F2FF8E1041164E33B3_highlight">
		<Style>
			<IconStyle>
				<scale>1.2</scale>
				<Icon>
					<href>https://earth.google.com/earth/document/icon?color=1976d2&amp;id=2000&amp;scale=4</href>
				</Icon>
				<hotSpot x="64" y="128" xunits="pixels" yunits="insetPixels"/>
			</IconStyle>
			<LabelStyle>
			</LabelStyle>
			<LineStyle>
				<color>ff2dc0fb</color>
				<width>6</width>
			</LineStyle>
			<PolyStyle>
				<color>40ffffff</color>
			</PolyStyle>
			<BalloonStyle>
				<displayMode>hide</displayMode>
			</BalloonStyle>
		</Style>
	</gx:CascadingStyle>
	<gx:CascadingStyle kml:id="__managed_style_08F2FF8E1041164E33B3_normal">
		<Style>
			<IconStyle>
				<Icon>
					<href>https://earth.google.com/earth/document/icon?color=1976d2&amp;id=2000&amp;scale=4</href>
				</Icon>
				<hotSpot x="64" y="128" xunits="pixels" yunits="insetPixels"/>
			</IconStyle>
			<LabelStyle>
			</LabelStyle>
			<LineStyle>
				<color>ff2dc0fb</color>
				<width>4</width>
			</LineStyle>
			<PolyStyle>
				<color>40ffffff</color>
			</PolyStyle>
			<BalloonStyle>
				<displayMode>hide</displayMode>
			</BalloonStyle>
		</Style>
	</gx:CascadingStyle>
	<gx:CascadingStyle kml:id="__managed_style_09BD22767A41164D990B_normal">
		<Style>
			<IconStyle>
				<Icon>
					<href>https://earth.google.com/earth/document/icon?color=1976d2&amp;id=2000&amp;scale=4</href>
				</Icon>
				<hotSpot x="64" y="128" xunits="pixels" yunits="insetPixels"/>
			</IconStyle>
			<LabelStyle>
			</LabelStyle>
			<LineStyle>
				<color>ff2dc0fb</color>
				<width>4</width>
			</LineStyle>
			<PolyStyle>
				<color>40ffffff</color>
			</PolyStyle>
			<BalloonStyle>
				<displayMode>hide</displayMode>
			</BalloonStyle>
		</Style>
	</gx:CascadingStyle>
	<StyleMap id="__managed_style_09BD22767A41164D990B">
		<Pair>
			<key>normal</key>
			<styleUrl>#__managed_style_09BD22767A41164D990B_normal</styleUrl>
		</Pair>
		<Pair>
			<key>highlight</key>
			<styleUrl>#__managed_style_09BD22767A41164D990B_highlight</styleUrl>
		</Pair>
	</StyleMap>
	<StyleMap id="__managed_style_08F2FF8E1041164E33B3">
		<Pair>
			<key>normal</key>
			<styleUrl>#__managed_style_08F2FF8E1041164E33B3_normal</styleUrl>
		</Pair>
		<Pair>
			<key>highlight</key>
			<styleUrl>#__managed_style_08F2FF8E1041164E33B3_highlight</styleUrl>
		</Pair>
	</StyleMap>
	<gx:CascadingStyle kml:id="__managed_style_0828150703411647FE94_highlight">
		<styleUrl>https://earth.google.com/balloon_components/base/1.1.0.0/card_template.kml#main</styleUrl>
		<Style>
			<IconStyle>
				<scale>0.9</scale>
				<Icon>
					<href>https://earth.google.com/earth/document/icon?color=1976d2&amp;id=2000&amp;scale=4</href>
				</Icon>
				<hotSpot x="64" y="128" xunits="pixels" yunits="insetPixels"/>
			</IconStyle>
			<LineStyle>
				<color>ff2dc0fb</color>
				<width>6</width>
			</LineStyle>
			<PolyStyle>
				<color>40ffffff</color>
			</PolyStyle>
		</Style>
	</gx:CascadingStyle>
	<gx:CascadingStyle kml:id="__managed_style_0828150703411647FE94_normal">
		<styleUrl>https://earth.google.com/balloon_components/base/1.1.0.0/card_template.kml#main</styleUrl>
		<Style>
			<IconStyle>
				<scale>0.75</scale>
				<Icon>
					<href>https://earth.google.com/earth/document/icon?color=1976d2&amp;id=2000&amp;scale=4</href>
				</Icon>
				<hotSpot x="64" y="128" xunits="pixels" yunits="insetPixels"/>
			</IconStyle>
			<LineStyle>
				<color>ff2dc0fb</color>
				<width>4</width>
			</LineStyle>
			<PolyStyle>
				<color>40ffffff</color>
			</PolyStyle>
		</Style>
	</gx:CascadingStyle>
	<StyleMap id="__managed_style_0828150703411647FE94">
		<Pair>
			<key>normal</key>
			<styleUrl>#__managed_style_0828150703411647FE94_normal</styleUrl>
		</Pair>
		<Pair>
			<key>highlight</key>
			<styleUrl>#__managed_style_0828150703411647FE94_highlight</styleUrl>
		</Pair>
	</StyleMap>
	<gx:CascadingStyle kml:id="__managed_style_079508BD0D411647FE93_normal">
		<Style>
			<IconStyle>
				<Icon>
					<href>https://earth.google.com/earth/document/icon?color=1976d2&amp;id=2000&amp;scale=4</href>
				</Icon>
				<hotSpot x="64" y="128" xunits="pixels" yunits="insetPixels"/>
			</IconStyle>
			<LineStyle>
				<color>ff2dc0fb</color>
				<width>4</width>
			</LineStyle>
			<PolyStyle>
				<color>40ffffff</color>
			</PolyStyle>
			<BalloonStyle>
				<text><![CDATA[<!DOCTYPE html>
<html>
  <head></head>
  <body></body>
</html>]]></text>
			</BalloonStyle>
		</Style>
	</gx:CascadingStyle>
	<gx:CascadingStyle kml:id="__managed_style_09BD22767A41164D990B_highlight">
		<Style>
			<IconStyle>
				<scale>1.2</scale>
				<Icon>
					<href>https://earth.google.com/earth/document/icon?color=1976d2&amp;id=2000&amp;scale=4</href>
				</Icon>
				<hotSpot x="64" y="128" xunits="pixels" yunits="insetPixels"/>
			</IconStyle>
			<LabelStyle>
			</LabelStyle>
			<LineStyle>
				<color>ff2dc0fb</color>
				<width>6</width>
			</LineStyle>
			<PolyStyle>
				<color>40ffffff</color>
			</PolyStyle>
			<BalloonStyle>
				<displayMode>hide</displayMode>
			</BalloonStyle>
		</Style>
	</gx:CascadingStyle>
	<gx:CascadingStyle kml:id="__managed_style_079508BD0D411647FE93_highlight">
		<Style>
			<IconStyle>
				<scale>1.2</scale>
				<Icon>
					<href>https://earth.google.com/earth/document/icon?color=1976d2&amp;id=2000&amp;scale=4</href>
				</Icon>
				<hotSpot x="64" y="128" xunits="pixels" yunits="insetPixels"/>
			</IconStyle>
			<LineStyle>
				<color>ff2dc0fb</color>
				<width>6</width>
			</LineStyle>
			<PolyStyle>
				<color>40ffffff</color>
			</PolyStyle>
			<BalloonStyle>
				<text><![CDATA[<!DOCTYPE html>
<html>
  <head></head>
  <body></body>
</html>]]></text>
			</BalloonStyle>
		</Style>
	</gx:CascadingStyle>
	<StyleMap id="__managed_style_079508BD0D411647FE93">
		<Pair>
			<key>normal</key>
			<styleUrl>#__managed_style_079508BD0D411647FE93_normal</styleUrl>
		</Pair>
		<Pair>
			<key>highlight</key>
			<styleUrl>#__managed_style_079508BD0D411647FE93_highlight</styleUrl>
		</Pair>
	</StyleMap>
	<Folder id="0DCCF0FD40323E2D1473">
		<name>podgorica/smokovac</name>
		<styleUrl>#__managed_style_079508BD0D411647FE93</styleUrl>
		<Placemark id="080BC529A2323E2F8985">
			<name>parking</name>
			<LookAt>
				<longitude>19.30677681290154</longitude>
				<latitude>42.48261440445235</latitude>
				<altitude>81.96874939931162</altitude>
				<heading>0</heading>
				<tilt>0</tilt>
				<gx:fovy>35</gx:fovy>
				<range>237.640737451693</range>
				<altitudeMode>absolute</altitudeMode>
			</LookAt>
			<styleUrl>#__managed_style_0828150703411647FE94</styleUrl>
			<Point>
				<coordinates>19.3065521991077,42.48279113459959,61.93561682008328</coordinates>
			</Point>
		</Placemark>
		<Placemark id="048560C53E323E3283E1">
			<name>access</name>
			<LookAt>
				<longitude>19.30910385146101</longitude>
				<latitude>42.48425582943668</latitude>
				<altitude>107.4976782888207</altitude>
				<heading>138.8802311236894</heading>
				<tilt>49.09119361624201</tilt>
				<gx:fovy>35</gx:fovy>
				<range>1331.53101814416</range>
				<altitudeMode>absolute</altitudeMode>
			</LookAt>
			<styleUrl>#__managed_style_09BD22767A41164D990B</styleUrl>
			<LineString>
				<coordinates>
					19.30658416273928,42.48279549250717,0 19.30657285017701,42.48272721826067,0 19.30657267966239,42.48268278133119,0 19.30660750346359,42.48269745514569,0 19.30671188410227,42.48276090588884,0 19.3068201526096,42.48287181341956,0 19.30696853709924,42.48299240112892,0 19.30707469379895,42.48304539530471,0 19.30716925637868,42.48306403897559,0 19.3072277352257,42.48304068068229,0 19.30727862911608,42.48304684338883,0 19.30735790478661,42.48303382821109,0 19.30754771913979,42.48309193816259,0 19.30760279778485,42.48313591617497,0 19.30765870134219,42.48316040219234,0 19.30771433631007,42.48315729492441,0 19.30778432836198,42.48316444003765,0 19.30779174654175,42.48312643333163,0 19.30775045412483,42.48307927222014,0 19.30771599473249,42.48306645854787,0 19.30771085801034,42.48301060113259,0 19.30762074447463,42.48295858890302,0 19.3076257435973,42.48294164194557,0 19.30764903951002,42.48294857050295,0 19.30764739124334,42.48292739134174,0 19.30766507085523,42.48292124719762,0 19.30773681270597,42.48293546818441,0 19.30776408293853,42.48294366532724,0 19.30777240701411,42.48292942326352,0 19.30777840751723,42.4828778762673,0 19.30779130899214,42.48285541181138,0 19.30779928130571,42.48284383748204,0 19.30776841357302,42.48281572026489,0 19.30775902086387,42.48278450486126,0 19.30776850808306,42.48276255959239,0 19.30782904558399,42.48278731121063,0 19.30796048115268,42.48284067024222,0 19.30801766766307,42.48284359734999,0 19.30809720755937,42.48288770904207,0 19.30815050634436,42.4829679577927,0 19.30830469997328,42.48308999291942,0 19.30838242593549,42.48315425359758,0 19.30842378126275,42.48315845632441,0 19.30844139923477,42.48319177797212,0 19.30852279064097,42.48324230952817,0 19.30862681566924,42.48336617333015,0 19.30871112625651,42.48346790329269,0 19.30878717403924,42.48356591886099,0 19.30906450176978,42.48375740029024,0 19.30930398032585,42.48393071244963,0 19.30951475846817,42.48404331468645,0 19.30988772499763,42.48421346011512,0 19.31061708610418,42.48460846200408,0 19.31109520913419,42.48478563573555,0 19.31167483350065,42.48504076958884,0 
				</coordinates>
			</LineString>
		</Placemark>
		<Placemark id="0115933FCD3262566150">
			<name>hidden</name>
			<visibility>0</visibility>
			<LookAt>
				<longitude>19.30910385192182</longitude>
				<latitude>42.48425582943668</latitude>
				<altitude>107.4976782902353</altitude>
				<heading>138.8802311133737</heading>
				<tilt>49.09100132544925</tilt>
				<gx:fovy>34.99999999887618</gx:fovy>
				<range>1331.53101814416</range>
				<altitudeMode>absolute</altitudeMode>
			</LookAt>
			<styleUrl>#__managed_style_09BD22767A41164D990B</styleUrl>
			<Point>
				<coordinates>19.30558223435818,42.48337129179937,67.55353726433026</coordinates>
			</Point>
		</Placemark>
		<Placemark id="003BA5AEAE32776B1C59">
			<name>sector/a</name>
			<styleUrl>#__managed_style_09BD22767A41164D990B</styleUrl>
			<Point>
				<extrude>1</extrude>
				<coordinates>19.311476,42.485132,0</coordinates>
			</Point>
		</Placemark>
		<Placemark id="00CBA1640732776CD62C">
			<name>sector/b</name>
			<styleUrl>#__managed_style_09BD22767A41164D990B</styleUrl>
			<Point>
				<extrude>1</extrude>
				<coordinates>19.311079,42.48469499999999,0</coordinates>
			</Point>
		</Placemark>
		<Placemark id="0885D054E732776E3566">
			<name>sector/c</name>
			<styleUrl>#__managed_style_09BD22767A41164D990B</styleUrl>
			<Point>
				<extrude>1</extrude>
				<coordinates>19.310424,42.48437699999999,0</coordinates>
			</Point>
		</Placemark>
		<Placemark id="01F7768C9732776F3E9E">
			<name>sector/d</name>
			<styleUrl>#__managed_style_09BD22767A41164D990B</styleUrl>
			<Point>
				<extrude>1</extrude>
				<coordinates>19.309695,42.484178,0</coordinates>
			</Point>
		</Placemark>
		<Placemark id="02F6800B133277700888">
			<name>sector/e</name>
			<styleUrl>#__managed_style_09BD22767A41164D990B</styleUrl>
			<Point>
				<extrude>1</extrude>
				<coordinates>19.30915,42.483947,0</coordinates>
			</Point>
		</Placemark>
	</Folder>
	<Folder id="02761B5447323E3DDB32">
		<name>podgorica/wonderwall</name>
		<styleUrl>#__managed_style_09BD22767A41164D990B</styleUrl>
		<Placemark id="0AFCA90141323E3E5ED9">
			<name>parking</name>
			<LookAt>
				<longitude>19.31351108161014</longitude>
				<latitude>42.50104568541492</latitude>
				<altitude>70.5074532499311</altitude>
				<heading>0</heading>
				<tilt>0</tilt>
				<gx:fovy>30.00000021889947</gx:fovy>
				<range>190.3159038629383</range>
				<altitudeMode>absolute</altitudeMode>
			</LookAt>
			<styleUrl>#__managed_style_09BD22767A41164D990B</styleUrl>
			<Point>
				<coordinates>19.31393932651232,42.50142632815059,78.23406944412575</coordinates>
			</Point>
		</Placemark>
		<Placemark id="087A63CAF4323E401C90">
			<name>access</name>
			<LookAt>
				<longitude>19.31428967358165</longitude>
				<latitude>42.5029175576698</latitude>
				<altitude>167.3282831480633</altitude>
				<heading>0</heading>
				<tilt>0</tilt>
				<gx:fovy>30.00000021889947</gx:fovy>
				<range>632.2639579846874</range>
				<altitudeMode>absolute</altitudeMode>
			</LookAt>
			<styleUrl>#__managed_style_09BD22767A41164D990B</styleUrl>
			<LineString>
				<coordinates>
					19.31349404052409,42.50123798308378,0 19.31346463106145,42.50125841564835,0 19.31343697102247,42.50127495091886,0 19.31344175333218,42.50129434779177,0 19.3133877620153,42.50132762691428,0 19.31334475042813,42.50136745699123,0 19.31336201566972,42.5013876627098,0 19.31334698873177,42.50140425407795,0 19.31332925044559,42.50143513509862,0 19.31328300996879,42.50147043710884,0 19.31319896037336,42.50159676948395,0 19.31326354023218,42.50163917673722,0 19.31311156453176,42.5016983852786,0 19.31311945966217,42.50176379394259,0 19.31314175267952,42.50181800466842,0 19.31306503483532,42.50183042840334,0 19.31308087325803,42.50186645226646,0 19.31307904474857,42.50189201859641,0 19.31300189945798,42.5018967740881,0 19.31297790828953,42.50193201152414,0 19.31291774929786,42.50192405816791,0 19.31288370683503,42.50194884035744,0 19.31288822303274,42.50199847548014,0 19.31280059924654,42.50202932616109,0 19.31270492426044,42.50202804388539,0 19.31257730584581,42.50200939181136,0 19.31250159765305,42.50198203094461,0 19.31240707516735,42.50194229195746,0 19.31239128394808,42.50200714610264,0 19.31227557490399,42.50198187451712,0 19.31221601206273,42.5020636755637,0 19.31215381595601,42.50213244415063,0 19.31218161391402,42.5021676569084,0 19.3122133772891,42.50228059698208,0 19.31232443130646,42.50233705138817,0 19.31258341681054,42.50259119223865,0 19.31304415686313,42.50298980996703,0 19.31320125179098,42.50310195450852,0 19.31332914097888,42.50321076901465,0 19.31349105239179,42.50338108023882,0 
				</coordinates>
			</LineString>
		</Placemark>
		<Placemark id="0D851B5DB3323E414F9A">
			<name>sector/a</name>
			<LookAt>
				<longitude>19.31428967035607</longitude>
				<latitude>42.50291751536275</latitude>
				<altitude>167.3256421466269</altitude>
				<heading>1.102377748069494e-06</heading>
				<tilt>0</tilt>
				<gx:fovy>30.00000021889947</gx:fovy>
				<range>632.2957112958102</range>
				<altitudeMode>absolute</altitudeMode>
			</LookAt>
			<styleUrl>#__managed_style_09BD22767A41164D990B</styleUrl>
			<Point>
				<coordinates>19.31347673820688,42.50338613286345,247.3328211710113</coordinates>
			</Point>
		</Placemark>
	</Folder>
	<Folder id="0CAF2DCD4A3272436137">
		<name>podgorica/dementia</name>
		<styleUrl>#__managed_style_09BD22767A41164D990B</styleUrl>
		<Placemark id="05ED5ABB0832724BA14C">
			<name>sector/a</name>
			<LookAt>
				<longitude>19.30962667832379</longitude>
				<latitude>42.49726824182806</latitude>
				<altitude>187.6715960989612</altitude>
				<heading>-44.24216405673435</heading>
				<tilt>53.31003278484756</tilt>
				<gx:fovy>34.9995659622008</gx:fovy>
				<range>796.567085823772</range>
				<altitudeMode>absolute</altitudeMode>
			</LookAt>
			<styleUrl>#__managed_style_09BD22767A41164D990B</styleUrl>
			<Point>
				<coordinates>19.31130364923579,42.50005625760375,117.0761269931462</coordinates>
			</Point>
		</Placemark>
		<Placemark id="016978A97832724C3FDC">
			<name>parking</name>
			<LookAt>
				<longitude>19.3109441884398</longitude>
				<latitude>42.49915725149839</latitude>
				<altitude>93.75296234347677</altitude>
				<heading>-44.23932396944532</heading>
				<tilt>53.30577468104669</tilt>
				<gx:fovy>34.9995659622008</gx:fovy>
				<range>206.0399349325962</range>
				<altitudeMode>absolute</altitudeMode>
			</LookAt>
			<styleUrl>#__managed_style_09BD22767A41164D990B</styleUrl>
			<Point>
				<coordinates>19.31137816749689,42.4991985228281,68.27042898347949</coordinates>
			</Point>
		</Placemark>
		<Placemark id="0DC85AC33A32724D0345">
			<name>access</name>
			<LookAt>
				<longitude>19.31116014152741</longitude>
				<latitude>42.49944752275325</latitude>
				<altitude>87.30339100520612</altitude>
				<heading>-44.23917807673106</heading>
				<tilt>53.30585251233795</tilt>
				<gx:fovy>34.9995659622008</gx:fovy>
				<range>216.8333952904505</range>
				<altitudeMode>absolute</altitudeMode>
			</LookAt>
			<styleUrl>#__managed_style_09BD22767A41164D990B</styleUrl>
			<LineString>
				<coordinates>
					19.31137562918045,42.49921405960136,0 19.31151487228747,42.49939617835711,0 19.31165814020241,42.49958369836221,0 19.31173569103398,42.49966235467685,0 19.31162565042422,42.4997308565037,0 19.31155857996639,42.49977137683908,0 19.31157052780827,42.49982655496327,0 19.31143993440456,42.49978930844383,0 19.31139346009486,42.49978768547873,0 19.31135697858253,42.49983231724155,0 19.31131034172265,42.49989113183989,0 19.31129409776134,42.50005726676691,0 
				</coordinates>
			</LineString>
		</Placemark>
	</Folder>
	<Folder id="0E51ADD0BB32CD2C1D71">
		<name>podgorica/lovka</name>
		<styleUrl>#__managed_style_09BD22767A41164D990B</styleUrl>
		<Placemark id="0F727ED70532CD2DD458">
			<name>parking</name>
			<LookAt>
				<longitude>19.3976246566271</longitude>
				<latitude>42.39724045850246</latitude>
				<altitude>329.4592534631369</altitude>
				<heading>0</heading>
				<tilt>0</tilt>
				<gx:fovy>30</gx:fovy>
				<range>288.8181979612273</range>
				<altitudeMode>absolute</altitudeMode>
			</LookAt>
			<styleUrl>#__managed_style_09BD22767A41164D990B</styleUrl>
			<Point>
				<coordinates>19.39800769631349,42.39746803529871,332.6498910608757</coordinates>
			</Point>
		</Placemark>
		<Placemark id="0A05775BF4336005AA16">
			<name>sector/Disco</name>
			<LookAt>
				<longitude>19.39469421484772</longitude>
				<latitude>42.39449858567119</latitude>
				<altitude>286.580828855257</altitude>
				<heading>-1.063627359092853e-10</heading>
				<tilt>38.60983960429273</tilt>
				<gx:fovy>30</gx:fovy>
				<range>1306.546122296713</range>
				<altitudeMode>absolute</altitudeMode>
			</LookAt>
			<styleUrl>#__managed_style_09BD22767A41164D990B</styleUrl>
			<Point>
				<coordinates>19.39353650111346,42.39366226620834,236.8670589684731</coordinates>
			</Point>
		</Placemark>
		<Placemark id="0BD47CEA8633600EE98D">
			<name>access</name>
			<LookAt>
				<longitude>19.39912029450329</longitude>
				<latitude>42.39476693246361</latitude>
				<altitude>306.170884747259</altitude>
				<heading>11.98914945704796</heading>
				<tilt>16.73852248094215</tilt>
				<gx:fovy>35</gx:fovy>
				<range>242.8709249904205</range>
				<altitudeMode>absolute</altitudeMode>
			</LookAt>
			<styleUrl>#__managed_style_09BD22767A41164D990B</styleUrl>
			<LineString>
				<coordinates>
					19.39354584167683,42.39365869256301,0 19.39385881836695,42.39371120806216,0 19.39404168116656,42.3937480447014,0 19.39431918062808,42.39381402088749,0 19.3946056058572,42.39393075638371,0 19.39490757530628,42.39405293246816,0 19.39516878973695,42.39415651974112,0 19.39536501693338,42.39421251774962,0 19.39582837950487,42.39430753044553,0 19.39610420942396,42.39435650828779,0 19.39646044317206,42.39441355028371,0 19.39663883003764,42.39445482537181,0 19.39693477997793,42.39450139985949,0 19.39722782657926,42.39455162718781,0 19.39756953985845,42.39460838747553,0 19.39773657000988,42.39460664721318,0 19.39804377194005,42.39461694141262,0 19.39840533502251,42.39462118271959,0 19.39891342584644,42.39458389234662,0 19.39932750955656,42.39456245330748,0 19.39954339472526,42.3945825566983,0 19.39975927186759,42.39462154376314,0 19.39985672765151,42.39465083407911,0 19.39989609929206,42.39468853289848,0 19.39981243749974,42.39471487940219,0 19.39969124442523,42.39472083950232,0 19.39964937019602,42.39480693362151,0 19.39954581098602,42.39486002596231,0 19.39943064825504,42.39483497882533,0 19.399377519255,42.39492743848482,0 19.39936356173355,42.39501598059789,0 19.39925841475482,42.39506789543511,0 19.39913827298689,42.39510288770863,0 19.39908876643475,42.39518538110286,0 19.39901029250576,42.39526301232434,0 19.39896850938557,42.39534971748363,0 19.3989168219968,42.3954410687528,0 19.39883213603662,42.39550681258316,0 19.39880303965415,42.39555947119953,0 19.39874960139572,42.39567506122392,0 19.39874376389795,42.39577086169633,0 19.39880075533688,42.39584986512245,0 19.39883270903099,42.39594695853146,0 19.39887176266556,42.39603665350369,0 19.39895286720001,42.39611035214322,0 19.39904706169601,42.39617067052107,0 19.39914808942551,42.39624023195773,0 19.39919129146636,42.39629405870105,0 19.39929279782925,42.39638174766856,0 19.39932366340678,42.39648058680218,0 19.39924473634968,42.39655426601132,0 19.39923325889273,42.39665335107565,0 19.39905054947949,42.39677828744934,0 19.3989735009508,42.39686320681824,0 19.39887317316314,42.39691774998272,0 19.39879387630835,42.39700000609595,0 19.39875039863373,42.39708424352467,0 19.39867530062078,42.39716463708167,0 19.39832262968067,42.39725713486405,0 19.39821248452609,42.39731429704408,0 19.39801456155087,42.39747558545251,0 
				</coordinates>
			</LineString>
		</Placemark>
		<Placemark id="0F48B3D8373360364EA7">
			<name>sector/weloveka</name>
			<LookAt>
				<longitude>19.39634515681218</longitude>
				<latitude>42.39385891234488</latitude>
				<altitude>222.0498800680543</altitude>
				<heading>6.004776837132588e-09</heading>
				<tilt>28.5663865871032</tilt>
				<gx:fovy>35</gx:fovy>
				<range>976.7277708824258</range>
				<altitudeMode>absolute</altitudeMode>
			</LookAt>
			<styleUrl>#__managed_style_09BD22767A41164D990B</styleUrl>
			<Point>
				<coordinates>19.39737723260537,42.39457210925948,287.8836165217963</coordinates>
			</Point>
		</Placemark>
		<Placemark id="0809C203CD3360388F00">
			<name>access/right</name>
			<LookAt>
				<longitude>19.40217416809044</longitude>
				<latitude>42.39591854414078</latitude>
				<altitude>282.8813284043432</altitude>
				<heading>-12.89102610138304</heading>
				<tilt>78.19610416733029</tilt>
				<gx:fovy>35</gx:fovy>
				<range>210.8721399127171</range>
				<altitudeMode>absolute</altitudeMode>
			</LookAt>
			<styleUrl>#__managed_style_09BD22767A41164D990B</styleUrl>
			<LineString>
				<coordinates>
					19.39989612484518,42.39468720492424,0 19.39992708178313,42.39467444929437,0 19.40005127398997,42.3946899038753,0 19.4001502062902,42.394756719097,0 19.40022463192579,42.39482877683567,0 19.40039826649777,42.39489173352629,0 19.40057078312252,42.39495982555171,0 19.40065778927632,42.39500344098699,0 19.40074334568838,42.39505362490057,0 19.40080182284466,42.39509345823686,0 19.40085652123052,42.39513372098738,0 19.40090399979985,42.39522176545721,0 19.40101626387319,42.39526904127176,0 19.40110419421693,42.39533421229086,0 19.40116111129329,42.39542053799158,0 19.40124962887513,42.39548256588544,0 19.40135967893628,42.39554565608577,0 19.40152395145033,42.39561823262098,0 19.40163819975626,42.39566854342124,0 19.40169037337717,42.39569503765781,0 19.40178119865259,42.39577822810118,0 19.40186754327616,42.3958735515773,0 19.40198168900549,42.39600515678661,0 19.40200510245804,42.39610242866215,0 19.40203606665447,42.39623074814352,0 19.40218525515632,42.39635110490081,0 19.40241734427824,42.39655487806512,0 19.40262687412699,42.39671715408817,0 19.40288115312735,42.39694233707191,0 19.40389379904627,42.39751217190172,0 
				</coordinates>
			</LineString>
		</Placemark>
		<Placemark id="08CECB43C2336039B8EE">
			<name>sector/babydoll</name>
			<LookAt>
				<longitude>19.40195695828865</longitude>
				<latitude>42.39603795878367</latitude>
				<altitude>303.8221271346013</altitude>
				<heading>-10.71314062780278</heading>
				<tilt>58.42176336104922</tilt>
				<gx:fovy>35</gx:fovy>
				<range>218.4853091520199</range>
				<altitudeMode>absolute</altitudeMode>
			</LookAt>
			<styleUrl>#__managed_style_09BD22767A41164D990B</styleUrl>
			<Point>
				<coordinates>19.40208248201528,42.39628251689678,306.2190285255589</coordinates>
			</Point>
		</Placemark>
		<Placemark id="0090BD927D33840EB419">
			<name>sector/techno</name>
			<LookAt>
				<longitude>19.39383509189678</longitude>
				<latitude>42.3937468990306</latitude>
				<altitude>242.1339393178433</altitude>
				<heading>2.890491556539137</heading>
				<tilt>48.7429361433879</tilt>
				<gx:fovy>30</gx:fovy>
				<range>241.5017778410402</range>
				<altitudeMode>absolute</altitudeMode>
			</LookAt>
			<styleUrl>#__managed_style_09BD22767A41164D990B</styleUrl>
			<Point>
				<coordinates>19.39376904539849,42.39370859987073,239.5528016425752</coordinates>
			</Point>
		</Placemark>
		<Placemark id="0462D0B29033840F1D25">
			<name>sector/regea</name>
			<LookAt>
				<longitude>19.39383509189678</longitude>
				<latitude>42.3937468990306</latitude>
				<altitude>242.1339393178433</altitude>
				<heading>2.890491556539137</heading>
				<tilt>48.7429361433879</tilt>
				<gx:fovy>30</gx:fovy>
				<range>241.5017778410402</range>
				<altitudeMode>absolute</altitudeMode>
			</LookAt>
			<styleUrl>#__managed_style_09BD22767A41164D990B</styleUrl>
			<Point>
				<coordinates>19.39494006978503,42.3940673298764,241.346188660705</coordinates>
			</Point>
		</Placemark>
		<Placemark id="00EC2D62AA33851E1D1D">
			<name>sector/les-mille-crougnes</name>
			<LookAt>
				<longitude>19.39566219993615</longitude>
				<latitude>42.39641928052735</latitude>
				<altitude>317.2139816614303</altitude>
				<heading>2.890848029892326</heading>
				<tilt>48.75067964052427</tilt>
				<gx:fovy>30</gx:fovy>
				<range>1386.957372990728</range>
				<altitudeMode>absolute</altitudeMode>
			</LookAt>
			<styleUrl>#__managed_style_09BD22767A41164D990B</styleUrl>
			<Point>
				<coordinates>19.39852001415964,42.39459274061498,287.6418218340444</coordinates>
			</Point>
		</Placemark>
		<Placemark id="0E3A16984B3387991783">
			<name>sector/emilio</name>
			<LookAt>
				<longitude>19.40226795637749</longitude>
				<latitude>42.3962095413313</latitude>
				<altitude>297.8401656784079</altitude>
				<heading>-24.00302154994255</heading>
				<tilt>32.1362402376893</tilt>
				<gx:fovy>30</gx:fovy>
				<range>614.3499450843229</range>
				<altitudeMode>absolute</altitudeMode>
			</LookAt>
			<styleUrl>#__managed_style_09BD22767A41164D990B</styleUrl>
			<Point>
				<coordinates>19.40287650322283,42.39694957119306,306.5891889338184</coordinates>
			</Point>
		</Placemark>
		<Placemark id="0124D05BC13387997D93">
			<name>sector/besa</name>
			<LookAt>
				<longitude>19.40340740103638</longitude>
				<latitude>42.39712262066453</latitude>
				<altitude>297.7652486012058</altitude>
				<heading>-24.00225327735454</heading>
				<tilt>32.13624066086279</tilt>
				<gx:fovy>30</gx:fovy>
				<range>614.4383908034797</range>
				<altitudeMode>absolute</altitudeMode>
			</LookAt>
			<styleUrl>#__managed_style_09BD22767A41164D990B</styleUrl>
			<Point>
				<coordinates>19.40343320882261,42.39725224942261,304.0390065636823</coordinates>
			</Point>
		</Placemark>
	</Folder>
	<Folder id="08F0F8C0AD337F0B6BA9">
		<name>podgorica/cijevna</name>
		<styleUrl>#__managed_style_09BD22767A41164D990B</styleUrl>
		<Placemark id="0EEAF2DF7A337F0DA04C">
			<name>sector/grey</name>
			<LookAt>
				<longitude>19.39234183851498</longitude>
				<latitude>42.3924893378848</latitude>
				<altitude>131.1514814814922</altitude>
				<heading>1.700965518320192</heading>
				<tilt>37.51713560452728</tilt>
				<gx:fovy>30</gx:fovy>
				<range>775.3893888023596</range>
				<altitudeMode>absolute</altitudeMode>
			</LookAt>
			<styleUrl>#__managed_style_09BD22767A41164D990B</styleUrl>
			<Point>
				<coordinates>19.39134394257754,42.3929434068946,144.1462522677943</coordinates>
			</Point>
		</Placemark>
		<Placemark id="05C9BA6BAA337F0E6B34">
			<name>sector/left</name>
			<LookAt>
				<longitude>19.39234183851498</longitude>
				<latitude>42.3924893378848</latitude>
				<altitude>131.1514814814922</altitude>
				<heading>1.700965518320192</heading>
				<tilt>37.51713560452728</tilt>
				<gx:fovy>30</gx:fovy>
				<range>775.3893888023596</range>
				<altitudeMode>absolute</altitudeMode>
			</LookAt>
			<styleUrl>#__managed_style_09BD22767A41164D990B</styleUrl>
			<Point>
				<coordinates>19.39235803611939,42.39283740975911,151.0550570395085</coordinates>
			</Point>
		</Placemark>
		<Placemark id="0EFC458FE9337F0EDF9B">
			<name>sector/right</name>
			<LookAt>
				<longitude>19.39380984725229</longitude>
				<latitude>42.39280521669445</latitude>
				<altitude>156.7774500183487</altitude>
				<heading>1.7009607254756</heading>
				<tilt>37.5169586619088</tilt>
				<gx:fovy>30</gx:fovy>
				<range>743.0811595956038</range>
				<altitudeMode>absolute</altitudeMode>
			</LookAt>
			<styleUrl>#__managed_style_09BD22767A41164D990B</styleUrl>
			<Point>
				<coordinates>19.3938636842636,42.39294976979311,169.7358619910803</coordinates>
			</Point>
		</Placemark>
		<Placemark id="099132AA94337F0FA205">
			<name>parking</name>
			<LookAt>
				<longitude>19.39312300722561</longitude>
				<latitude>42.39220317267031</latitude>
				<altitude>119.3156713731137</altitude>
				<heading>1.700905161192004</heading>
				<tilt>37.51490792253312</tilt>
				<gx:fovy>30</gx:fovy>
				<range>368.5957730887458</range>
				<altitudeMode>absolute</altitudeMode>
			</LookAt>
			<styleUrl>#__managed_style_09BD22767A41164D990B</styleUrl>
			<Point>
				<coordinates>19.39335036328487,42.39178559094893,109.1296680018565</coordinates>
			</Point>
		</Placemark>
		<Placemark id="00EB5FA39C337F11B084">
			<name>access</name>
			<LookAt>
				<longitude>19.39226600803232</longitude>
				<latitude>42.3925339226106</latitude>
				<altitude>132.8786054632648</altitude>
				<heading>-17.69151222270345</heading>
				<tilt>20.09498570765096</tilt>
				<gx:fovy>30</gx:fovy>
				<range>368.9027835698653</range>
				<altitudeMode>absolute</altitudeMode>
			</LookAt>
			<styleUrl>#__managed_style_09BD22767A41164D990B</styleUrl>
			<LineString>
				<coordinates>
					19.39334442467801,42.39181035768701,0 19.39324142059115,42.39186558010423,0 19.3931793240157,42.39189375765131,0 19.39308493006267,42.39192457268422,0 19.3930091754143,42.39196986146315,0 19.39299207322061,42.39199453425661,0 19.39295417138962,42.39202897310226,0 19.39291963265525,42.39204999557352,0 19.39288543464535,42.39207696482261,0 19.39282437647389,42.39209033621081,0 19.39277696344253,42.39213882898847,0 19.39274581269666,42.39216675475583,0 19.39270933697226,42.39218322983149,0 19.39266675384516,42.3922090313323,0 19.39258587668669,42.39222553150274,0 19.39254350683806,42.39224816153533,0 19.39244214213101,42.39227856148993,0 19.39239871250532,42.39232676203584,0 19.39238752267865,42.39234220050638,0 19.39236727101552,42.39238285529772,0 19.39234323154461,42.39241984807407,0 19.39230894965067,42.3924635737492,0 19.39220708732099,42.39252007110434,0 19.39215898134166,42.39256212423052,0 19.39218466455351,42.39262089211186,0 19.39215791203949,42.39265493160394,0 19.39206982890844,42.39274164348599,0 19.39200549398797,42.39278568861861,0 19.39208028523726,42.39282380222688,0 19.39214939245017,42.3928500354095,0 19.39225781705327,42.39284664810074,0 19.39240843381613,42.39283157767836,0 19.39263262425718,42.39280151932338,0 19.39277910966029,42.39275366304374,0 19.39283077519398,42.39274742687743,0 19.39291945884043,42.39276775550455,0 19.39302035629306,42.39277199057243,0 19.39317242519089,42.3927782477417,0 19.39324432201283,42.39281751902043,0 19.39335812869379,42.39281951239244,0 19.39349939515678,42.39281366533294,0 19.39360777012076,42.39284621747316,0 19.39375426885974,42.39287535968029,0 19.39385411611051,42.39288109532936,0 19.39399495811093,42.39294433385045,0 19.394163004967,42.39297299008361,0 19.39421171683989,42.39301315622703,0 
				</coordinates>
			</LineString>
		</Placemark>
		<Placemark id="04899CE569337F1283A7">
			<name>access/left</name>
			<LookAt>
				<longitude>19.3921773629137</longitude>
				<latitude>42.39268283243369</latitude>
				<altitude>139.7893907031267</altitude>
				<heading>-17.69157198675494</heading>
				<tilt>20.09496297071596</tilt>
				<gx:fovy>30</gx:fovy>
				<range>361.5440116611353</range>
				<altitudeMode>absolute</altitudeMode>
			</LookAt>
			<styleUrl>#__managed_style_09BD22767A41164D990B</styleUrl>
			<LineString>
				<coordinates>
					19.39209124773447,42.39283495115055,0 19.39201755917744,42.39286974780102,0 19.3918802654152,42.39288741591772,0 19.39176040132912,42.39285275632749,0 19.3917003627358,42.39283320169565,0 19.3916679711117,42.39284000401111,0 19.39156159497018,42.39285303281813,0 19.39145143674454,42.39286640155541,0 19.39137321372988,42.39291549944002,0 19.39129276537378,42.392951209148,0 19.3911847200363,42.39296399380956,0 
				</coordinates>
			</LineString>
		</Placemark>
	</Folder>
	<Folder id="015281A31E337F37FDB0">
		<name>podgorica/titograd</name>
		<styleUrl>#__managed_style_09BD22767A41164D990B</styleUrl>
		<Placemark id="02C31D9276337F38A0E6">
			<name>parking</name>
			<LookAt>
				<longitude>19.3079313469116</longitude>
				<latitude>42.48608563428381</latitude>
				<altitude>76.95452631488618</altitude>
				<heading>-48.98561904746876</heading>
				<tilt>27.92495618244468</tilt>
				<gx:fovy>30</gx:fovy>
				<range>502.4988834763645</range>
				<altitudeMode>absolute</altitudeMode>
			</LookAt>
			<styleUrl>#__managed_style_09BD22767A41164D990B</styleUrl>
			<Point>
				<coordinates>19.30756450532573,42.48533783739018,72.39968959729872</coordinates>
			</Point>
		</Placemark>
		<Placemark id="0040119E78337F391091">
			<name>sector/a</name>
			<LookAt>
				<longitude>19.30927539807444</longitude>
				<latitude>42.48872507043986</latitude>
				<altitude>44.19983852831591</altitude>
				<heading>-78.01084534117956</heading>
				<tilt>28.18318189634855</tilt>
				<gx:fovy>30</gx:fovy>
				<range>203.1253749907046</range>
				<altitudeMode>absolute</altitudeMode>
			</LookAt>
			<styleUrl>#__managed_style_09BD22767A41164D990B</styleUrl>
			<Point>
				<coordinates>19.30914264658844,42.48876854601821,49.61208185899594</coordinates>
			</Point>
		</Placemark>
		<Placemark id="09A3121A70337F3A6E9F">
			<name>access</name>
			<LookAt>
				<longitude>19.30915890241378</longitude>
				<latitude>42.48853416383186</latitude>
				<altitude>59.89248995773752</altitude>
				<heading>-78.35056321002708</heading>
				<tilt>22.60673215933273</tilt>
				<gx:fovy>30</gx:fovy>
				<range>207.6740483978574</range>
				<altitudeMode>absolute</altitudeMode>
			</LookAt>
			<styleUrl>#__managed_style_09BD22767A41164D990B</styleUrl>
			<LineString>
				<coordinates>
					19.30750859697608,42.48536894693161,0 19.30765594449792,42.48549649782819,0 19.30782177951011,42.48557594193914,0 19.30792338981214,42.48561396556867,0 19.30799789173285,42.48575486661117,0 19.3081388693621,42.48586143273941,0 19.30824734855361,42.48595202282947,0 19.30833307167811,42.48598304780144,0 19.30848873214475,42.48612886518826,0 19.30865822145026,42.4862806417328,0 19.30881706650303,42.48644365605615,0 19.3089836312287,42.48662340678403,0 19.30912152646103,42.48678925542983,0 19.30918764701556,42.48688891757462,0 19.30926300500901,42.48702318642689,0 19.30931240449381,42.48717678417857,0 19.30934034193543,42.48733296043419,0 19.30934530567637,42.48744322839701,0 19.30941818989885,42.48762344087775,0 19.30942966175321,42.48780231326343,0 19.30945299540165,42.48800487162138,0 19.3094258957579,42.48816364889353,0 19.30932966879258,42.48832232987684,0 19.30925876000494,42.48846079591689,0 19.3092256068732,42.4885433193548,0 19.30918049775087,42.48871302052118,0 19.30914604579859,42.48876682199081,0 
				</coordinates>
			</LineString>
		</Placemark>
	</Folder>
	<Folder id="04E0C1D11A33B1766CD9">
		<name>podgorica/drolja</name>
		<styleUrl>#__managed_style_09BD22767A41164D990B</styleUrl>
		<Placemark id="0068A4E7E933B17607D0">
			<name>sector/a</name>
			<LookAt>
				<longitude>19.3062035980937</longitude>
				<latitude>42.48480687212251</latitude>
				<altitude>74.78757400663297</altitude>
				<heading>0</heading>
				<tilt>0</tilt>
				<gx:fovy>35</gx:fovy>
				<range>501.0079612199479</range>
				<altitudeMode>absolute</altitudeMode>
			</LookAt>
			<styleUrl>#__managed_style_09BD22767A41164D990B</styleUrl>
			<Point>
				<coordinates>19.30477298261926,42.48505314744605,118.8852553517514</coordinates>
			</Point>
		</Placemark>
		<Placemark id="0F7E0C078133B177C374">
			<name>parking</name>
			<LookAt>
				<longitude>19.3062035973449</longitude>
				<latitude>42.48480686789603</latitude>
				<altitude>74.78742308911252</altitude>
				<heading>0</heading>
				<tilt>0</tilt>
				<gx:fovy>34.99996280891472</gx:fovy>
				<range>501.3960469436279</range>
				<altitudeMode>absolute</altitudeMode>
			</LookAt>
			<styleUrl>#__managed_style_09BD22767A41164D990B</styleUrl>
			<Point>
				<coordinates>19.30537332654539,42.48397905999849,70.53920105948636</coordinates>
			</Point>
		</Placemark>
		<Placemark id="0C3B2B718E33B17986DA">
			<name>access</name>
			<LookAt>
				<longitude>19.30541382110646</longitude>
				<latitude>42.48485464218203</latitude>
				<altitude>88.22962190104485</altitude>
				<heading>4.395654505703727e-07</heading>
				<tilt>0.303734217186138</tilt>
				<gx:fovy>34.99996280891472</gx:fovy>
				<range>240.8871774388172</range>
				<altitudeMode>absolute</altitudeMode>
			</LookAt>
			<styleUrl>#__managed_style_09BD22767A41164D990B</styleUrl>
			<LineString>
				<coordinates>
					19.3053595438863,42.48404748864765,0 19.3053939720153,42.48412612917429,0 19.30532910694009,42.48419490192772,0 19.30571538533279,42.48441315909627,0 19.30597793465495,42.48455677097129,0 19.30596827930994,42.48461571290658,0 19.30593016118651,42.48469345328142,0 19.30585666813472,42.48480978931927,0 19.30576814830773,42.48494967436621,0 19.30578148053222,42.48501089585923,0 19.30587794513207,42.485118264337,0 19.30591198851638,42.48519496584198,0 19.3059666846529,42.48526927274343,0 19.30600927576054,42.48532323954484,0 19.30596102040834,42.48537322411943,0 19.30589979966949,42.48540751093995,0 19.30584765697414,42.48545360144465,0 19.30582433455069,42.48548899154251,0 19.30580970404828,42.48553607334006,0 19.30578449720409,42.48555791926888,0 19.30573452375463,42.48557819502722,0 19.30568577328951,42.4855921358543,0 19.30563270000384,42.48559780129658,0 19.30553482464886,42.48557184034205,0 19.30549659601386,42.48553729293126,0 19.30545047997248,42.4854448239244,0 19.30543410517462,42.48536600967075,0 19.30536946331693,42.48525074715565,0 19.30532357494659,42.48519476884817,0 19.3052238274608,42.48516520882942,0 19.30519762870122,42.48516319185229,0 19.30516797541927,42.48513296464362,0 19.30511105607749,42.48511965308996,0 19.30505534207056,42.48510370863342,0 19.30501540599971,42.48512373952075,0 19.30494614426514,42.48510117107211,0 19.30485266778528,42.48508652612038,0 19.3047793947601,42.48506209291426,0 
				</coordinates>
			</LineString>
		</Placemark>
	</Folder>
	<Folder id="01314BF82C337F5265C8">
		<name>bar/stari-bar</name>
		<styleUrl>#__managed_style_09BD22767A41164D990B</styleUrl>
		<Placemark id="0FAC03545E337F5422E1">
			<name>sector/a</name>
			<LookAt>
				<longitude>19.14030293505869</longitude>
				<latitude>42.09962479498799</latitude>
				<altitude>210.1363947325887</altitude>
				<heading>-32.619223275827</heading>
				<tilt>67.28820622369767</tilt>
				<gx:fovy>30</gx:fovy>
				<range>424.7247336823057</range>
				<altitudeMode>absolute</altitudeMode>
			</LookAt>
			<styleUrl>#__managed_style_09BD22767A41164D990B</styleUrl>
			<Point>
				<coordinates>19.13951632500831,42.09890398254584,209.9464519292261</coordinates>
			</Point>
		</Placemark>
		<Placemark id="0FB3ADB1C4337F55B6CE">
			<name>sector/b</name>
			<LookAt>
				<longitude>19.14030293505869</longitude>
				<latitude>42.09962479498799</latitude>
				<altitude>210.1363947325887</altitude>
				<heading>-32.61922327582707</heading>
				<tilt>67.28820622369769</tilt>
				<gx:fovy>30</gx:fovy>
				<range>424.7247336823057</range>
				<altitudeMode>absolute</altitudeMode>
			</LookAt>
			<styleUrl>#__managed_style_09BD22767A41164D990B</styleUrl>
			<Point>
				<coordinates>19.13974397547927,42.09897840515069,211.2642761270092</coordinates>
			</Point>
		</Placemark>
		<Placemark id="026D6EF81C337F562D63">
			<name>sector/c</name>
			<LookAt>
				<longitude>19.14030293505869</longitude>
				<latitude>42.09962479498799</latitude>
				<altitude>210.1363947325887</altitude>
				<heading>-32.61922327582707</heading>
				<tilt>67.28820622369769</tilt>
				<gx:fovy>30</gx:fovy>
				<range>424.7247336823057</range>
				<altitudeMode>absolute</altitudeMode>
			</LookAt>
			<styleUrl>#__managed_style_09BD22767A41164D990B</styleUrl>
			<Point>
				<coordinates>19.13983241182747,42.09903090846466,209.4185857748199</coordinates>
			</Point>
		</Placemark>
		<Placemark id="0455B3875B337F573C48">
			<name>sector/d</name>
			<LookAt>
				<longitude>19.14030293505869</longitude>
				<latitude>42.09962479498799</latitude>
				<altitude>210.1363947325887</altitude>
				<heading>-32.61922327582707</heading>
				<tilt>67.28820622369769</tilt>
				<gx:fovy>30</gx:fovy>
				<range>424.7247336823057</range>
				<altitudeMode>absolute</altitudeMode>
			</LookAt>
			<styleUrl>#__managed_style_09BD22767A41164D990B</styleUrl>
			<Point>
				<coordinates>19.13990849535351,42.09910119761491,208.7479255627898</coordinates>
			</Point>
		</Placemark>
	</Folder>
	<Folder id="09FD83C5A034F2179D63">
		<name>bar/menke</name>
		<open>1</open>
		<styleUrl>#__managed_style_09BD22767A41164D990B</styleUrl>
		<Placemark id="02B2183CFB34F2182863">
			<name>parking</name>
			<LookAt>
				<longitude>19.14399820379111</longitude>
				<latitude>42.09823067384064</latitude>
				<altitude>285.6908102140001</altitude>
				<heading>58.18291918766696</heading>
				<tilt>66.21249730805913</tilt>
				<gx:fovy>30.00000000465683</gx:fovy>
				<range>309.0574571621619</range>
				<altitudeMode>absolute</altitudeMode>
			</LookAt>
			<styleUrl>#__managed_style_09BD22767A41164D990B</styleUrl>
			<Point>
				<coordinates>19.1437946133085,42.09786549753424,274.6462403438674</coordinates>
			</Point>
		</Placemark>
		<Placemark id="0343B6BF7534F21A14E1">
			<name>access</name>
			<LookAt>
				<longitude>19.1463004824835</longitude>
				<latitude>42.09652910171029</latitude>
				<altitude>294.2454160567727</altitude>
				<heading>58.18446258999624</heading>
				<tilt>66.21232278263832</tilt>
				<gx:fovy>30.00000000465683</gx:fovy>
				<range>287.8484472040146</range>
				<altitudeMode>absolute</altitudeMode>
			</LookAt>
			<styleUrl>#__managed_style_09BD22767A41164D990B</styleUrl>
			<LineString>
				<coordinates>
					19.14382307057613,42.09785021146036,0 19.14381653993184,42.0975667287288,0 19.14390549559561,42.09747066514865,0 19.14397087497496,42.0972797312812,0 19.14404779203667,42.09696190885071,0 19.14438375695943,42.09653391983533,0 19.14498032669044,42.09664900853108,0 19.14522039253129,42.0966709606645,0 19.14548685282875,42.09665931817225,0 19.14587108758045,42.09660309676752,0 19.14627688414016,42.09653798007997,0 19.14656915873559,42.09648607797563,0 19.1468923961269,42.09639166968597,0 
				</coordinates>
			</LineString>
		</Placemark>
		<Placemark id="0CB5AE09E634F21B5D5F">
			<name>sector/a</name>
			<LookAt>
				<longitude>19.14713738557605</longitude>
				<latitude>42.09658361991748</latitude>
				<altitude>322.9500151724257</altitude>
				<heading>58.18570480011991</heading>
				<tilt>66.21289459254675</tilt>
				<gx:fovy>30.00000000465683</gx:fovy>
				<range>357.340035511661</range>
				<altitudeMode>absolute</altitudeMode>
			</LookAt>
			<styleUrl>#__managed_style_09BD22767A41164D990B</styleUrl>
			<Point>
				<coordinates>19.14689122429783,42.09638701263984,301.6943715901196</coordinates>
			</Point>
		</Placemark>
	</Folder>
	<Folder id="0BCF37B64E41164DC94F">
		<name>kolasin/rijeka</name>
		<open>1</open>
		<styleUrl>#__managed_style_09BD22767A41164D990B</styleUrl>
		<Placemark id="0977D8DEFC41164E33AE">
			<name>parking</name>
			<LookAt>
				<longitude>19.56348284806735</longitude>
				<latitude>42.83536591651776</latitude>
				<altitude>1081.991080475114</altitude>
				<heading>3.21749875622677</heading>
				<tilt>2.210735259085688</tilt>
				<gx:fovy>35</gx:fovy>
				<range>539.6473834678181</range>
				<altitudeMode>absolute</altitudeMode>
			</LookAt>
			<styleUrl>#__managed_style_08F2FF8E1041164E33B3</styleUrl>
			<Point>
				<coordinates>19.56339916231201,42.83491677046646,1054.258899011835</coordinates>
			</Point>
		</Placemark>
		<Placemark id="0A55AB01AB41164F0173">
			<name>access</name>
			<LookAt>
				<longitude>19.56328018372674</longitude>
				<latitude>42.83502720148041</latitude>
				<altitude>1053.832809736453</altitude>
				<heading>3.21749130521334</heading>
				<tilt>2.210592061408776</tilt>
				<gx:fovy>35</gx:fovy>
				<range>126.7654411879812</range>
				<altitudeMode>absolute</altitudeMode>
			</LookAt>
			<styleUrl>#__managed_style_08F2FF8E1041164E33B3</styleUrl>
			<LineString>
				<coordinates>
					19.56338243377295,42.83490388245457,0 19.56330481473476,42.83485669303163,0 19.56319953774763,42.83494080577765,0 19.5630890563711,42.83502148381191,0 19.56308959133739,42.83511249106442,0 19.56317700545628,42.83526197969577,0 
				</coordinates>
			</LineString>
		</Placemark>
		<Placemark id="0970E1DA0741164F679C">
			<name>sector/lynx</name>
			<LookAt>
				<longitude>19.56328018372674</longitude>
				<latitude>42.83502720148041</latitude>
				<altitude>1053.832809736453</altitude>
				<heading>3.21749130521334</heading>
				<tilt>2.210592061408776</tilt>
				<gx:fovy>35</gx:fovy>
				<range>126.7654411879812</range>
				<altitudeMode>absolute</altitudeMode>
			</LookAt>
			<styleUrl>#__managed_style_08F2FF8E1041164E33B3</styleUrl>
			<Point>
				<coordinates>19.56305717300933,42.83515684607008,1058.863884924609</coordinates>
			</Point>
		</Placemark>
		<Placemark id="0CCDF0F747411650BB1E">
			<name>sector/scorpion-wall</name>
			<LookAt>
				<longitude>19.56176668667306</longitude>
				<latitude>42.8359871803711</latitude>
				<altitude>1134.087424737101</altitude>
				<heading>-8.821201078880613</heading>
				<tilt>65.46887126870843</tilt>
				<gx:fovy>35</gx:fovy>
				<range>688.9645245336578</range>
				<altitudeMode>absolute</altitudeMode>
			</LookAt>
			<styleUrl>#__managed_style_08F2FF8E1041164E33B3</styleUrl>
			<Point>
				<coordinates>19.56385857516623,42.8357940516867,1084.086299404923</coordinates>
			</Point>
		</Placemark>
	</Folder>
</Document>
</kml>
